start=new Date('2022-01-01T00:00:00.000Z').valueOf();
sats=[{"ARG_OF_PERICENTER":"63.5579","REF_FRAME":"TEME","OBJECT_TYPE":"PAYLOAD","INCLINATION":"53.0550","SITE":"AFETR","PERIAPSIS":"546.017","RA_OF_ASC_NODE":"346.7074","CENTER_NAME":"EARTH","RCS_SIZE":"LARGE","ECCENTRICITY":"0.00017250","MEAN_MOTION_DDOT":"0.0000000000000","CLASSIFICATION_TYPE":"U","MEAN_MOTION":"15.06400535","FILE":"3255242","EPHEMERIS_TYPE":"0","APOAPSIS":"548.407","OBJECT_NAME":"STARLINK-1930","ELEMENT_SET_NO":"999","OBJECT_ID":"2020-074BC","COUNTRY_CODE":"US","DECAY_DATE":null,"LAUNCH_DATE":"2020-10-24","MEAN_MOTION_DOT":"-0.00000135","MEAN_ELEMENT_THEORY":"SGP4","TLE_LINE2":"2 46789  53.0550 346.7074 0001725  63.5579 296.5587 15.06400535 66187","NORAD_CAT_ID":"46789","TIME_SYSTEM":"UTC","EPOCH":"2021-12-31T10:25:02.034048","REV_AT_EPOCH":"6618","MEAN_ANOMALY":"296.5587","PERIOD":"95.592","TLE_LINE1":"1 46789U 20074BC  21365.43405132 -.00000135  00000-0  98452-5 0  9999","GP_ID":"192819976","BSTAR":"0.00000984520000","SEMIMAJOR_AXIS":"6925.347"},{"MEAN_ELEMENT_THEORY":"SGP4","TLE_LINE2":"2 46790  53.0551 347.1018 0001532  65.3015 294.8134 15.06399000 66165","LAUNCH_DATE":"2020-10-24","DECAY_DATE":null,"MEAN_MOTION_DOT":"0.00002236","NORAD_CAT_ID":"46790","APOAPSIS":"548.278","OBJECT_NAME":"STARLINK-1931","COUNTRY_CODE":"US","OBJECT_ID":"2020-074BD","ELEMENT_SET_NO":"999","MEAN_ANOMALY":"294.8134","REV_AT_EPOCH":"6616","SEMIMAJOR_AXIS":"6925.352","TLE_LINE1":"1 46790U 20074BD  21365.34654235  .00002236  00000-0  16895-3 0  9993","BSTAR":"0.00016895000000","GP_ID":"192820214","PERIOD":"95.592","TIME_SYSTEM":"UTC","EPOCH":"2021-12-31T08:19:01.259040","RA_OF_ASC_NODE":"347.1018","PERIAPSIS":"546.156","CENTER_NAME":"EARTH","OBJECT_TYPE":"PAYLOAD","REF_FRAME":"TEME","ARG_OF_PERICENTER":"65.3015","SITE":"AFETR","INCLINATION":"53.0551","EPHEMERIS_TYPE":"0","CLASSIFICATION_TYPE":"U","ECCENTRICITY":"0.00015320","MEAN_MOTION_DDOT":"0.0000000000000","RCS_SIZE":"LARGE","FILE":"3255242","MEAN_MOTION":"15.06399000"},{"INCLINATION":"53.0546","SITE":"AFETR","REF_FRAME":"TEME","ARG_OF_PERICENTER":"60.9990","OBJECT_TYPE":"PAYLOAD","CENTER_NAME":"EARTH","RA_OF_ASC_NODE":"346.7428","PERIAPSIS":"546.080","MEAN_MOTION":"15.06400778","FILE":"3255242","MEAN_MOTION_DDOT":"0.0000000000000","ECCENTRICITY":"0.00016340","RCS_SIZE":"LARGE","CLASSIFICATION_TYPE":"U","EPHEMERIS_TYPE":"0","ELEMENT_SET_NO":"999","COUNTRY_CODE":"US","OBJECT_ID":"2020-074BE","OBJECT_NAME":"STARLINK-1933","APOAPSIS":"548.343","NORAD_CAT_ID":"46791","DECAY_DATE":null,"LAUNCH_DATE":"2020-10-24","MEAN_MOTION_DOT":"0.00000328","TLE_LINE2":"2 46791  53.0546 346.7428 0001634  60.9990 299.1163 15.06400778 66183","MEAN_ELEMENT_THEORY":"SGP4","EPOCH":"2021-12-31T10:15:46.734336","TIME_SYSTEM":"UTC","PERIOD":"95.592","SEMIMAJOR_AXIS":"6925.346","BSTAR":"0.00004094600000","TLE_LINE1":"1 46791U 20074BE  21365.42762424  .00000328  00000-0  40946-4 0  9998","GP_ID":"192818975","MEAN_ANOMALY":"299.1163","REV_AT_EPOCH":"6618"},{"EPHEMERIS_TYPE":"0","CLASSIFICATION_TYPE":"U","RCS_SIZE":"LARGE","ECCENTRICITY":"0.00016940","MEAN_MOTION_DDOT":"0.0000000000000","FILE":"3255242","MEAN_MOTION":"15.06389867","PERIAPSIS":"546.071","RA_OF_ASC_NODE":"336.6204","CENTER_NAME":"EARTH","OBJECT_TYPE":"PAYLOAD","REF_FRAME":"TEME","ARG_OF_PERICENTER":"64.1180","SITE":"AFETR","INCLINATION":"53.0549","REV_AT_EPOCH":"6632","MEAN_ANOMALY":"295.9983","GP_ID":"192819225","TLE_LINE1":"1 46792U 20074BF  21365.45435483 -.00000484  00000-0 -13588-4 0  9991","BSTAR":"-0.00001358800000","SEMIMAJOR_AXIS":"6925.380","PERIOD":"95.593","TIME_SYSTEM":"UTC","EPOCH":"2021-12-31T10:54:16.257312","MEAN_ELEMENT_THEORY":"SGP4","TLE_LINE2":"2 46792  53.0549 336.6204 0001694  64.1180 295.9983 15.06389867 66325","MEAN_MOTION_DOT":"-0.00000484","DECAY_DATE":null,"LAUNCH_DATE":"2020-10-24","NORAD_CAT_ID":"46792","APOAPSIS":"548.418","OBJECT_NAME":"STARLINK-1934","OBJECT_ID":"2020-074BF","COUNTRY_CODE":"US","ELEMENT_SET_NO":"999"},{"RCS_SIZE":"LARGE","MEAN_MOTION_DDOT":"0.0000000000000","ECCENTRICITY":"0.00017080","CLASSIFICATION_TYPE":"U","MEAN_MOTION":"15.06374589","FILE":"3255242","EPHEMERIS_TYPE":"0","ARG_OF_PERICENTER":"64.9728","REF_FRAME":"TEME","OBJECT_TYPE":"PAYLOAD","INCLINATION":"53.0556","SITE":"AFETR","PERIAPSIS":"546.109","RA_OF_ASC_NODE":"347.0958","CENTER_NAME":"EARTH","TIME_SYSTEM":"UTC","EPOCH":"2021-12-31T08:24:20.157984","REV_AT_EPOCH":"6616","MEAN_ANOMALY":"295.1439","PERIOD":"95.594","TLE_LINE1":"1 46793U 20074BG  21365.35023331  .00002502  00000-0  18690-3 0  9995","BSTAR":"0.00018690000000","GP_ID":"192819476","SEMIMAJOR_AXIS":"6925.426","APOAPSIS":"548.474","OBJECT_NAME":"STARLINK-1941","ELEMENT_SET_NO":"999","OBJECT_ID":"2020-074BG","COUNTRY_CODE":"US","DECAY_DATE":null,"LAUNCH_DATE":"2020-10-24","MEAN_MOTION_DOT":"0.00002502","MEAN_ELEMENT_THEORY":"SGP4","TLE_LINE2":"2 46793  53.0556 347.0958 0001708  64.9728 295.1439 15.06374589 66163","NORAD_CAT_ID":"46793"},{"INCLINATION":"53.0548","SITE":"AFETR","ARG_OF_PERICENTER":"62.9313","REF_FRAME":"TEME","OBJECT_TYPE":"PAYLOAD","CENTER_NAME":"EARTH","RA_OF_ASC_NODE":"346.7655","PERIAPSIS":"546.047","MEAN_MOTION":"15.06395483","FILE":"3255242","ECCENTRICITY":"0.00017050","MEAN_MOTION_DDOT":"0.0000000000000","RCS_SIZE":"LARGE","CLASSIFICATION_TYPE":"U","EPHEMERIS_TYPE":"0","ELEMENT_SET_NO":"999","COUNTRY_CODE":"US","OBJECT_ID":"2020-074BH","APOAPSIS":"548.408","OBJECT_NAME":"STARLINK-1942","NORAD_CAT_ID":"46794","MEAN_MOTION_DOT":"-0.00000124","DECAY_DATE":null,"LAUNCH_DATE":"2020-10-24","MEAN_ELEMENT_THEORY":"SGP4","TLE_LINE2":"2 46794  53.0548 346.7655 0001705  62.9313 297.1849 15.06395483 66185","EPOCH":"2021-12-31T10:10:28.657056","TIME_SYSTEM":"UTC","PERIOD":"95.592","SEMIMAJOR_AXIS":"6925.362","GP_ID":"192819714","TLE_LINE1":"1 46794U 20074BH  21365.42394279 -.00000124  00000-0  10552-4 0  9995","BSTAR":"0.00001055200000","MEAN_ANOMALY":"297.1849","REV_AT_EPOCH":"6618"},{"NORAD_CAT_ID":"46796","MEAN_ELEMENT_THEORY":"SGP4","TLE_LINE2":"2 46796  53.0556 337.1703 0001821  65.8895 294.2284 15.06396171 66300","DECAY_DATE":null,"MEAN_MOTION_DOT":"0.00001355","LAUNCH_DATE":"2020-10-24","COUNTRY_CODE":"US","OBJECT_ID":"2020-074BK","ELEMENT_SET_NO":"999","OBJECT_NAME":"STARLINK-1944","APOAPSIS":"548.486","SEMIMAJOR_AXIS":"6925.360","TLE_LINE1":"1 46796U 20074BK  21365.33270805  .00001355  00000-0  10989-3 0  9994","GP_ID":"192818475","BSTAR":"0.00010989000000","PERIOD":"95.592","MEAN_ANOMALY":"294.2284","REV_AT_EPOCH":"6630","EPOCH":"2021-12-31T07:59:05.975520","TIME_SYSTEM":"UTC","CENTER_NAME":"EARTH","RA_OF_ASC_NODE":"337.1703","PERIAPSIS":"545.964","SITE":"AFETR","INCLINATION":"53.0556","OBJECT_TYPE":"PAYLOAD","ARG_OF_PERICENTER":"65.8895","REF_FRAME":"TEME","EPHEMERIS_TYPE":"0","FILE":"3255242","MEAN_MOTION":"15.06396171","CLASSIFICATION_TYPE":"U","MEAN_MOTION_DDOT":"0.0000000000000","ECCENTRICITY":"0.00018210","RCS_SIZE":"LARGE"},{"OBJECT_NAME":"STARLINK-1947","APOAPSIS":"395.817","COUNTRY_CODE":"US","OBJECT_ID":"2020-074BL","ELEMENT_SET_NO":"999","MEAN_ELEMENT_THEORY":"SGP4","TLE_LINE2":"2 46797  53.0552 287.7879 0003599  95.1133 265.0290 15.58023343 66999","DECAY_DATE":null,"MEAN_MOTION_DOT":"0.00026298","LAUNCH_DATE":"2020-10-24","NORAD_CAT_ID":"46797","TIME_SYSTEM":"UTC","EPOCH":"2021-12-31T03:57:42.840288","MEAN_ANOMALY":"265.0290","REV_AT_EPOCH":"6699","SEMIMAJOR_AXIS":"6771.515","TLE_LINE1":"1 46797U 20074BL  21365.16507917  .00026298  00000-0  34970-3 0  9992","BSTAR":"0.00034970000000","GP_ID":"192818725","PERIOD":"92.425","OBJECT_TYPE":"PAYLOAD","ARG_OF_PERICENTER":"95.1133","REF_FRAME":"TEME","SITE":"AFETR","INCLINATION":"53.0552","PERIAPSIS":"390.943","RA_OF_ASC_NODE":"287.7879","CENTER_NAME":"EARTH","CLASSIFICATION_TYPE":"U","ECCENTRICITY":"0.00035990","MEAN_MOTION_DDOT":"0.0000000000000","RCS_SIZE":"LARGE","FILE":"3255242","MEAN_MOTION":"15.58023343","EPHEMERIS_TYPE":"0"},{"EPOCH":"2021-12-31T11:55:56.160192","TIME_SYSTEM":"UTC","TLE_LINE1":"1 46798U 20074BM  21365.49717778  .00000740  00000-0  68603-4 0  9992","BSTAR":"0.00006860300000","GP_ID":"192819977","SEMIMAJOR_AXIS":"6925.367","PERIOD":"95.593","REV_AT_EPOCH":"6598","MEAN_ANOMALY":"287.2948","OBJECT_ID":"2020-074BM","COUNTRY_CODE":"US","ELEMENT_SET_NO":"999","APOAPSIS":"548.293","OBJECT_NAME":"STARLINK-1948","NORAD_CAT_ID":"46798","TLE_LINE2":"2 46798  53.0548   1.4367 0001532  72.8208 287.2948 15.06394064 65986","MEAN_ELEMENT_THEORY":"SGP4","DECAY_DATE":null,"LAUNCH_DATE":"2020-10-24","MEAN_MOTION_DOT":"0.00000740","FILE":"3255242","MEAN_MOTION":"15.06394064","CLASSIFICATION_TYPE":"U","RCS_SIZE":"LARGE","ECCENTRICITY":"0.00015320","MEAN_MOTION_DDOT":"0.0000000000000","EPHEMERIS_TYPE":"0","SITE":"AFETR","INCLINATION":"53.0548","OBJECT_TYPE":"PAYLOAD","ARG_OF_PERICENTER":"72.8208","REF_FRAME":"TEME","CENTER_NAME":"EARTH","RA_OF_ASC_NODE":"1.4367","PERIAPSIS":"546.171"},{"NORAD_CAT_ID":"47122","TLE_LINE2":"2 47122  53.0553 327.5243 0001940  58.1691 301.9487 15.06398616 61317","MEAN_ELEMENT_THEORY":"SGP4","LAUNCH_DATE":"2020-11-25","DECAY_DATE":null,"MEAN_MOTION_DOT":"-0.00000001","COUNTRY_CODE":"US","OBJECT_ID":"2020-088A","ELEMENT_SET_NO":"999","APOAPSIS":"548.561","OBJECT_NAME":"STARLINK-1777","SEMIMAJOR_AXIS":"6925.353","GP_ID":"192818763","TLE_LINE1":"1 47122U 20088A   21365.25254289 -.00000001  00000-0  18825-4 0  9998","BSTAR":"0.00001882500000","PERIOD":"95.592","MEAN_ANOMALY":"301.9487","REV_AT_EPOCH":"6131","EPOCH":"2021-12-31T06:03:39.705696","TIME_SYSTEM":"UTC","CENTER_NAME":"EARTH","RA_OF_ASC_NODE":"327.5243","PERIAPSIS":"545.874","SITE":"AFETR","INCLINATION":"53.0553","OBJECT_TYPE":"PAYLOAD","REF_FRAME":"TEME","ARG_OF_PERICENTER":"58.1691","EPHEMERIS_TYPE":"0","FILE":"3255242","MEAN_MOTION":"15.06398616","CLASSIFICATION_TYPE":"U","ECCENTRICITY":"0.00019400","MEAN_MOTION_DDOT":"0.0000000000000","RCS_SIZE":"LARGE"}];
